NORAD_CAT_ID,OBJECT_NAME,OBJECT_TYPE,EPOCH,MEAN_MOTION,ECCENTRICITY,INCLINATION,RA_OF_ASC_NODE,ARG_OF_PERICENTER,MEAN_ANOMALY,BSTAR,MEAN_MOTION_DOT,MEAN_MOTION_DDOT,TLE_LINE0,TLE_LINE1,TLE_LINE2,SEMIMAJOR_AXIS,PERIOD,APOGEE,PERIGEE,DECAYED
53928.0,STARLINK-5009,PAYLOAD,2024-05-15 00:15:30,15.08873535,0.0002182,53.2191,43.3857,99.1242,260.9997,0.0014737,0.00023266,0.0,0 STARLINK-5009,1 53928U 22119AU  24136.01077408  .00023266  00000-0  14737-2 0  9998,2 53928  53.2191  43.3857 0002182  99.1242 260.9997 15.08873535 91355,6917.778,95.435,541.152,538.133,0.0
53928.0,STARLINK-5009,PAYLOAD,2024-05-15 20:55:31,15.08845093,0.0001309,53.2182,39.522,81.9625,278.1516,0.00099115,0.00015524,0.0,0 STARLINK-5009,1 53928U 22119AU  24136.87189724  .00015524  00000-0  99115-3 0  9999,2 53928  53.2182  39.5220 0001309  81.9625 278.1516 15.08845093 91480,6917.865,95.437,540.635,538.824,0.0
53928.0,STARLINK-5009,PAYLOAD,2024-05-15 22:30:54,15.08850384,0.0001582,53.2185,39.2231,106.795,253.3216,0.00055889,8.62e-05,0.0,0 STARLINK-5009,1 53928U 22119AU  24136.93813486  .00008620  00000-0  55889-3 0  9994,2 53928  53.2185  39.2231 0001582 106.7950 253.3216 15.08850384 91911,6917.849,95.437,540.808,538.619,0.0
53928.0,STARLINK-5009,PAYLOAD,2024-05-16 00:06:17,15.0885138,0.0001624,53.2182,38.9273,102.8416,257.2758,0.00046175,7.071e-05,0.0,0 STARLINK-5009,1 53928U 22119AU  24137.00437430  .00007071  00000-0  46175-3 0  9991,2 53928  53.2182  38.9273 0001624 102.8416 257.2758 15.08851380 91923,6917.846,95.437,540.834,538.587,0.0
53928.0,STARLINK-5009,PAYLOAD,2024-05-16 17:35:32,15.08851318,0.0001606,53.2179,35.6554,100.206,259.9113,0.0011635,0.00018283,0.0,0 STARLINK-5009,1 53928U 22119AU  24137.73301653  .00018283  00000-0  11635-2 0  9997,2 53928  53.2179  35.6554 0001606 100.2060 259.9113 15.08851318 91613,6917.846,95.437,540.822,538.6,0.0
53928.0,STARLINK-5009,PAYLOAD,2024-05-17 09:29:23,15.08871361,6.27e-05,53.2182,32.6832,321.9549,38.1399,0.0011186,0.00017575,0.0,0 STARLINK-5009,1 53928U 22119AU  24138.39540746  .00017575  00000-0  11186-2 0  9992,2 53928  53.2182  32.6832 0000627 321.9549  38.1399 15.08871361 92130,6917.785,95.436,540.083,539.216,0.0
53928.0,STARLINK-5009,PAYLOAD,2024-05-17 17:26:20,15.08809705,0.0001191,53.2186,31.1958,64.5418,295.5697,-0.00057112,-9.358e-05,0.0,0 STARLINK-5009,1 53928U 22119AU  24138.72662311 -.00009358  00000-0 -57112-3 0  9994,2 53928  53.2186  31.1958 0001191  64.5418 295.5697 15.08809705 91760,6917.973,95.439,540.662,539.014,0.0
53928.0,STARLINK-5009,PAYLOAD,2024-05-17 22:12:29,15.08823899,0.0001626,53.2192,30.3055,83.7975,276.3203,0.00027445,4.081e-05,0.0,0 STARLINK-5009,1 53928U 22119AU  24138.92534477  .00004081  00000-0  27445-3 0  9999,2 53928  53.2192  30.3055 0001626  83.7975 276.3203 15.08823899 92211,6917.93,95.439,540.919,538.67,0.0
53928.0,STARLINK-5009,PAYLOAD,2024-05-17 23:47:53,15.08821816,0.0001376,53.2192,30.0099,66.3459,293.7678,0.0014799,0.00023331,0.0,0 STARLINK-5009,1 53928U 22119AU  24138.99158627  .00023331  00000-0  14799-2 0  9991,2 53928  53.2192  30.0099 0001376  66.3459 293.7678 15.08821816 91802,6917.936,95.439,540.753,538.849,0.0
53928.0,STARLINK-5009,PAYLOAD,2024-05-18 09:20:11,15.08847513,0.0001269,53.218,28.2248,59.5471,300.5646,0.0018937,0.00029985,0.0,0 STARLINK-5009,1 53928U 22119AU  24139.38902709  .00029985  00000-0  18937-2 0  9992,2 53928  53.2180  28.2248 0001269  59.5471 300.5646 15.08847513 92280,6917.857,95.437,540.6,538.845,0.0
53928.0,STARLINK-5009,PAYLOAD,2024-05-18 22:03:16,15.08869201,0.0001267,53.2178,25.847,65.1932,294.9192,0.0012613,0.00019859,0.0,0 STARLINK-5009,1 53928U 22119AU  24139.91893990  .00019859  00000-0  12613-2 0  9996,2 53928  53.2178  25.8470 0001267  65.1932 294.9192 15.08869201 92369,6917.791,95.436,540.533,538.78,0.0
53928.0,STARLINK-5009,PAYLOAD,2024-05-19 01:14:02,15.08885893,0.0001465,53.2198,25.2523,70.2373,289.8777,0.0017885,0.00028327,0.0,0 STARLINK-5009,1 53928U 22119AU  24140.05141569  .00028327  00000-0  17885-2 0  9997,2 53928  53.2198  25.2523 0001465  70.2373 289.8777 15.08885893 91962,6917.74,95.435,540.619,538.592,0.0
53928.0,STARLINK-5009,PAYLOAD,2024-05-19 20:18:40,15.08827014,9.26e-05,53.2183,21.6844,100.3807,259.729,0.00080899,0.00012606,0.0,0 STARLINK-5009,1 53928U 22119AU  24140.84630708  .00012606  00000-0  80899-3 0  9991,2 53928  53.2183  21.6844 0000926 100.3807 259.7290 15.08827014 92081,6917.92,95.438,540.426,539.144,0.0
53928.0,STARLINK-5009,PAYLOAD,2024-05-20 01:04:50,15.08830197,0.0001206,53.2176,20.7926,120.1768,239.9344,0.0012161,0.00019114,0.0,0 STARLINK-5009,1 53928U 22119AU  24141.04502890  .00019114  00000-0  12161-2 0  9991,2 53928  53.2176  20.7926 0001206 120.1768 239.9344 15.08830197 92538,6917.91,95.438,540.61,538.941,0.0
53928.0,STARLINK-5009,PAYLOAD,2024-05-20 23:20:14,15.08856907,0.0001305,53.2185,16.6248,91.5627,268.5514,0.0010798,0.00016947,0.0,0 STARLINK-5009,1 53928U 22119AU  24141.97238926  .00016947  00000-0  10798-2 0  9994,2 53928  53.2185  16.6248 0001305  91.5627 268.5514 15.08856907 92257,6917.829,95.436,540.596,538.791,0.0
53928.0,STARLINK-5009,PAYLOAD,2024-05-21 20:00:15,15.08851405,0.0001197,53.2192,12.7591,93.1391,266.9738,0.00062615,9.694e-05,0.0,0 STARLINK-5009,1 53928U 22119AU  24142.83351017  .00009694  00000-0  62615-3 0  9994,2 53928  53.2192  12.7591 0001197  93.1391 266.9738 15.08851405 92380,6917.846,95.437,540.539,538.882,0.0
53928.0,STARLINK-5009,PAYLOAD,2024-05-21 21:35:38,15.08852414,0.0001186,53.2189,12.4621,83.3803,276.7324,0.00070346,0.00010929,0.0,0 STARLINK-5009,1 53928U 22119AU  24142.89975037  .00010929  00000-0  70346-3 0  9997,2 53928  53.2189  12.4621 0001186  83.3803 276.7324 15.08852414 92813,6917.842,95.437,540.528,538.887,0.0
53928.0,STARLINK-5009,PAYLOAD,2024-05-22 19:51:02,15.08845984,0.0001163,53.2172,8.3046,107.9951,252.1168,0.00034841,5.262e-05,0.0,0 STARLINK-5009,1 53928U 22119AU  24143.82710966  .00005262  00000-0  34841-3 0  9993,2 53928  53.2172   8.3046 0001163 107.9951 252.1168 15.08845984 92539,6917.862,95.437,540.532,538.923,0.0
53928.0,STARLINK-5009,PAYLOAD,2024-05-22 21:26:25,15.0884775,0.0001161,53.2171,8.0081,105.2986,254.8134,0.00035124,5.308e-05,0.0,0 STARLINK-5009,1 53928U 22119AU  24143.89334923  .00005308  00000-0  35124-3 0  9991,2 53928  53.2171   8.0081 0001161 105.2986 254.8134 15.08847750 92963,6917.857,95.437,540.525,538.919,0.0
53928.0,STARLINK-5009,PAYLOAD,2024-05-23 00:37:11,15.08850676,0.0001294,53.2185,7.4062,89.1521,270.962,0.00032343,4.865e-05,0.0,0 STARLINK-5009,1 53928U 22119AU  24144.02582810  .00004865  00000-0  32343-3 0  9994,2 53928  53.2185   7.4062 0001294  89.1521 270.9620 15.08850676 92984,6917.848,95.437,540.608,538.818,0.0
53928.0,STARLINK-5009,PAYLOAD,2024-05-23 18:06:26,15.08844557,0.000136,53.2179,4.1305,118.1364,241.9766,0.00019813,2.867e-05,0.0,0 STARLINK-5009,1 53928U 22119AU  24144.75446801  .00002867  00000-0  19813-3 0  9990,2 53928  53.2179   4.1305 0001360 118.1364 241.9766 15.08844557 92679,6917.866,95.437,540.672,538.791,0.0
53928.0,STARLINK-5009,PAYLOAD,2024-05-23 21:17:12,15.08847407,0.0001277,53.2182,3.5355,91.4101,268.7038,0.00024323,3.586e-05,0.0,0 STARLINK-5009,1 53928U 22119AU  24144.88694825  .00003586  00000-0  24323-3 0  9996,2 53928  53.2182   3.5355 0001277  91.4101 268.7038 15.08847407 93116,6917.858,95.437,540.606,538.839,0.0
53928.0,STARLINK-5009,PAYLOAD,2024-05-24 00:27:58,15.0884759,0.0001315,53.2183,2.9424,101.5453,258.5687,0.00021602,3.152e-05,0.0,0 STARLINK-5009,1 53928U 22119AU  24145.01942673  .00003152  00000-0  21602-3 0  9995,2 53928  53.2183   2.9424 0001315 101.5453 258.5687 15.08847590 93135,6917.857,95.437,540.632,538.812,0.0
53928.0,STARLINK-5009,PAYLOAD,2024-05-24 21:07:58,15.08853684,9.63e-05,53.2175,359.0838,88.0029,272.1074,0.00024063,3.545e-05,0.0,0 STARLINK-5009,1 53928U 22119AU  24145.88054349  .00003545  00000-0  24063-3 0  9994,2 53928  53.2175 359.0838 0000963  88.0029 272.1074 15.08853684 92847,6917.839,95.437,540.37,539.037,0.0
53928.0,STARLINK-5009,PAYLOAD,2024-05-25 13:01:51,15.08832007,0.0001234,53.2174,356.1104,97.4354,262.6778,-7.5064e-05,-1.482e-05,0.0,0 STARLINK-5009,1 53928U 22119AU  24146.54295241 -.00001482  00000-0 -75064-4 0  9994,2 53928  53.2174 356.1104 0001234  97.4354 262.6778 15.08832007 92949,6917.905,95.438,540.623,538.916,0.0
53928.0,STARLINK-5009,PAYLOAD,2024-05-25 14:37:14,15.08831481,0.0001165,53.2174,355.8119,99.2333,260.8791,-0.00017341,-3.046e-05,0.0,0 STARLINK-5009,1 53928U 22119AU  24146.60919337 -.00003046  00000-0 -17341-3 0  9991,2 53928  53.2174 355.8119 0001165  99.2333 260.8791 15.08831481 93379,6917.906,95.438,540.577,538.965,0.0
53928.0,STARLINK-5009,PAYLOAD,2024-05-25 20:58:47,15.08817743,0.0001469,53.2187,354.6333,124.4991,235.614,-0.00039738,-6.603e-05,0.0,0 STARLINK-5009,1 53928U 22119AU  24146.87416108 -.00006603  00000-0 -39738-3 0  9994,2 53928  53.2187 354.6333 0001469 124.4991 235.6140 15.08817743 92996,6917.948,95.439,540.83,538.797,0.0
53928.0,STARLINK-5009,PAYLOAD,2024-05-26 20:49:34,15.08812574,0.000197,53.2192,350.174,137.2578,222.8567,-0.0004657,-7.687e-05,0.0,0 STARLINK-5009,1 53928U 22119AU  24147.86776069 -.00007687  00000-0 -46570-3 0  9994,2 53928  53.2192 350.1740 0001970 137.2578 222.8567 15.08812574 93141,6917.964,95.439,541.192,538.466,0.0
53928.0,STARLINK-5009,PAYLOAD,2024-05-26 22:24:58,15.08793979,0.0001306,53.2185,349.8758,127.9086,232.2024,-0.00079976,-0.00012977,0.0,0 STARLINK-5009,1 53928U 22119AU  24147.93400970 -.00012977  00000-0 -79976-3 0  9991,2 53928  53.2185 349.8758 0001306 127.9086 232.2024 15.08793979 93577,6918.021,95.44,540.79,538.983,0.0
53928.0,STARLINK-5009,PAYLOAD,2024-05-27 20:40:21,15.08844131,0.000101,53.2185,345.7017,94.7709,265.3398,0.00022946,3.366e-05,0.0,0 STARLINK-5009,1 53928U 22119AU  24148.86135443  .00003366  00000-0  22946-3 0  9999,2 53928  53.2185 345.7017 0001010  94.7709 265.3398 15.08844131 93292,6917.868,95.437,540.431,539.034,0.0
